{"type":"FeatureCollection","features":[{"type":"Feature","properties":{"name":"Haa Alif"},"geometry":{"type":"Polygon","coordinates":[[[72.798,7.0752],[72.8061,7.03],[72.9788,6.8364],[73.0092,6.82],[73.0108,6.8192],[73.0119,6.8191],[73.0561,6.8264],[73.2462,6.9041],[73.2462,6.9097],[73.2462,6.9137],[73.2459,6.9159],[73.2455,6.9184],[73.2332,6.9577],[73.2321,6.9598],[73.2314,6.9611],[73.2306,6.9621],[73.2296,6.9629],[73.2286,6.9635],[73.2278,6.964],[72.8943,7.1138],[72.8937,7.114],[72.893,7.1141],[72.8916,7.114],[72.8908,7.1139],[72.8867,7.1129],[72.8006,7.0797],[72.7996,7.0786],[72.7986,7.0772],[72.7983,7.0764],[72.798,7.0752]]]}},{"type":"Feature","properties":{"name":"Haa Dhaalu"},"geometry":{"type":"Polygon","coordinates":[[[72.6305,6.309],[72.6307,6.309],[73.0528,6.5009],[73.0541,6.5015],[73.055,6.5022],[73.0556,6.5029],[73.226,6.8234],[73.2265,6.8244],[73.2424,6.8833],[73.2428,6.8861],[73.2429,6.8882],[73.243,6.8896],[73.2431,6.8952],[73.2432,6.9066],[73.2432,6.9096],[73.2432,6.9105],[73.243,6.9127],[73.2428,6.9144],[72.9245,6.7537],[72.635,6.4024],[72.6305,6.309]]]}},{"type":"Feature","properties":{"name":"Shaviyani"},"geometry":{"type":"Polygon","coordinates":[[[72.894,6.4893],[72.9299,5.969],[72.9302,5.9682],[72.9456,5.9539],[72.9462,5.9536],[72.9473,5.9531],[72.9492,5.9528],[72.95,5.953],[73.0906,6.0066],[73.3035,6.1361],[73.3054,6.138],[73.3059,6.1389],[73.3131,6.191],[73.3126,6.1969],[73.3125,6.1973],[73.2394,6.3386],[73.2224,6.3593],[73.0604,6.4642],[73.0597,6.4644],[72.8958,6.4898],[72.8949,6.4899],[72.8941,6.4895],[72.894,6.4893]]]}},{"type":"Feature","properties":{"name":"Noonu"},"geometry":{"type":"Polygon","coordinates":[[[73.0991,6.0148],[73.0992,6.0139],[73.1304,5.8739],[73.1564,5.8056],[73.1577,5.8027],[73.1578,5.8025],[73.1596,5.7988],[73.1599,5.7983],[73.2061,5.7324],[73.2708,5.6493],[73.2713,5.6489],[73.2975,5.6334],[73.2988,5.6333],[73.3297,5.6322],[73.3299,5.6322],[73.387,5.6541],[73.3887,5.6551],[73.3962,5.6594],[73.3971,5.6603],[73.4108,5.6758],[73.4144,5.6814],[73.4932,5.8258],[73.4934,5.8266],[73.4942,5.8352],[73.4941,5.837],[73.494,5.8387],[73.4823,5.8853],[73.482,5.886],[73.4817,5.8868],[73.4813,5.8877],[73.4808,5.8887],[73.4694,5.9071],[73.4153,5.9778],[73.2879,6.1196],[73.287,6.1201],[73.2854,6.1205],[73.2834,6.1208],[73.2819,6.1207],[73.1004,6.0165],[73.0993,6.0156],[73.0991,6.0152],[73.0991,6.0148]]]}},{"type":"Feature","properties":{"name":"Raa"},"geometry":{"type":"Polygon","coordinates":[[[72.7948,5.5247],[72.8974,5.3703],[72.8977,5.3701],[72.8984,5.37],[72.9931,5.3878],[72.9936,5.3881],[72.9939,5.3884],[73.0437,5.4356],[73.049,5.4653],[73.0554,5.5214],[73.0573,5.5411],[73.0592,5.6071],[73.0591,5.6104],[73.0559,5.6286],[73.0527,5.6426],[73.0112,5.802],[73.0108,5.8038],[72.9939,5.87],[72.9907,5.8736],[72.9898,5.8737],[72.9892,5.8736],[72.8692,5.7912],[72.8452,5.7322],[72.7948,5.5247]]]}},{"type":"Feature","properties":{"name":"Baa"},"geometry":{"type":"Polygon","coordinates":[[[72.8255,5.0575],[72.8274,5.0183],[72.8277,5.0167],[72.8281,5.0152],[72.9247,4.8732],[72.9973,4.8499],[72.9978,4.8498],[72.9986,4.8504],[73.0,4.8517],[73.0095,4.8631],[73.0098,4.8635],[73.1761,5.1907],[73.1791,5.2418],[73.172,5.2768],[72.9799,5.4053],[72.9793,5.4056],[72.9786,5.4055],[72.901,5.3782],[72.9005,5.378],[72.8997,5.3777],[72.8687,5.2746],[72.8255,5.0575]]]}},{"type":"Feature","properties":{"name":"Lhaviyani"},"geometry":{"type":"Polygon","coordinates":[[[73.3193,5.3614],[73.3194,5.361],[73.3202,5.3603],[73.5175,5.2319],[73.629,5.2711],[73.6292,5.2712],[73.6312,5.2723],[73.6318,5.2726],[73.6333,5.2739],[73.6576,5.3167],[73.6691,5.3392],[73.6692,5.34],[73.6692,5.3624],[73.6612,5.4015],[73.6573,5.4174],[73.6521,5.4269],[73.5032,5.5529],[73.5023,5.5533],[73.4675,5.5645],[73.4663,5.5645],[73.4633,5.5637],[73.4623,5.5633],[73.4546,5.5585],[73.3606,5.4708],[73.3591,5.469],[73.3589,5.4685],[73.3513,5.4498],[73.3197,5.3633],[73.3193,5.3622],[73.3193,5.3614]]]}},{"type":"Feature","properties":{"name":"Mal\u00e9"},"geometry":{"type":"Polygon","coordinates":[[[73.356,4.5169],[73.3615,4.3586],[73.4112,4.295],[73.4116,4.2949],[73.5733,4.2927],[73.574,4.2928],[73.575,4.2931],[73.5946,4.3049],[73.5951,4.3053],[73.6681,4.3632],[73.7218,4.4303],[73.7225,4.4311],[73.7232,4.4323],[73.724,4.4342],[73.7273,4.4442],[73.7275,4.445],[73.727,4.4498],[73.7266,4.4513],[73.4684,4.9749],[73.4679,4.9758],[73.4676,4.9762],[73.4661,4.9772],[73.4656,4.9774],[73.4636,4.978],[73.4627,4.978],[73.4625,4.9779],[73.4623,4.9778],[73.4614,4.9772],[73.4445,4.966],[73.4443,4.9654],[73.356,4.5169]]]}},{"type":"Feature","properties":{"name":"Kaafu"},"geometry":{"type":"Polygon","coordinates":[[[73.3511,3.8922],[73.3614,3.8658],[73.3616,3.8654],[73.3625,3.8648],[73.4547,3.8353],[73.4598,3.8352],[73.4607,3.8352],[73.5113,3.9557],[73.5114,3.9562],[73.5165,3.9798],[73.5584,4.2455],[73.5586,4.2468],[73.5649,4.3061],[73.5645,4.3066],[73.5642,4.3067],[73.4255,4.2974],[73.4248,4.2973],[73.3745,4.2714],[73.3609,4.2615],[73.3598,4.2607],[73.3597,4.2603],[73.3511,3.8922]]]}},{"type":"Feature","properties":{"name":"Alif Alif"},"geometry":{"type":"Polygon","coordinates":[[[72.7085,3.9761],[72.7093,3.9754],[72.7102,3.9747],[72.7109,3.9745],[72.7132,3.9743],[72.7146,3.9742],[72.9533,3.9938],[72.9538,3.9942],[72.9543,3.9949],[73.0237,4.3024],[72.9705,4.4491],[72.969,4.4515],[72.9677,4.4529],[72.9667,4.4538],[72.9656,4.4545],[72.9649,4.4549],[72.9642,4.4551],[72.9636,4.455],[72.9629,4.4548],[72.9621,4.4546],[72.961,4.4542],[72.9592,4.4526],[72.9591,4.4525],[72.7434,4.218],[72.7432,4.2177],[72.732,4.1873],[72.7134,4.0416],[72.7085,3.9761]]]}},{"type":"Feature","properties":{"name":"Alif Dhaalu"},"geometry":{"type":"Polygon","coordinates":[[[72.697,3.7086],[72.6972,3.7038],[72.7053,3.5667],[72.7082,3.5402],[72.7083,3.5395],[72.7093,3.5366],[72.7541,3.4845],[72.7544,3.4843],[72.824,3.4578],[72.8414,3.4584],[72.855,3.4595],[72.8561,3.4596],[72.8779,3.4699],[72.8789,3.4704],[72.8812,3.4721],[72.8956,3.4831],[72.8962,3.4836],[72.9001,3.4869],[72.9259,3.5101],[72.9262,3.5104],[72.9285,3.5131],[72.9316,3.5171],[72.9339,3.5203],[72.9364,3.5239],[72.9373,3.5253],[72.9378,3.526],[72.9394,3.5287],[72.9693,3.6045],[72.9695,3.6054],[72.9734,3.6343],[72.981,3.7662],[72.9649,3.8597],[72.9595,3.8864],[72.959,3.8876],[72.916,3.971],[72.9159,3.9712],[72.9154,3.9713],[72.7382,3.9338],[72.7377,3.9333],[72.7203,3.8951],[72.697,3.7089],[72.697,3.7086]]]}},{"type":"Feature","properties":{"name":"Vaavu"},"geometry":{"type":"Polygon","coordinates":[[[73.3546,3.644],[73.3547,3.6435],[73.4316,3.2681],[73.4416,3.2641],[73.4451,3.2627],[73.447,3.262],[73.4474,3.2619],[73.6476,3.3496],[73.7708,3.4465],[73.7709,3.4472],[73.771,3.4504],[73.7708,3.4513],[73.7705,3.4527],[73.7697,3.4557],[73.4072,3.8246],[73.4068,3.8248],[73.4067,3.8247],[73.406,3.8232],[73.4058,3.8225],[73.3546,3.644]]]}},{"type":"Feature","properties":{"name":"Faafu"},"geometry":{"type":"Polygon","coordinates":[[[72.808,3.2602],[72.8081,3.2598],[72.8782,3.0467],[72.8783,3.0466],[72.8793,3.0457],[72.8828,3.0428],[72.8837,3.0422],[72.8856,3.0417],[72.8867,3.0415],[72.8874,3.0415],[72.9281,3.0497],[72.9291,3.05],[72.9692,3.066],[72.97,3.0665],[72.9707,3.0671],[73.0301,3.1322],[73.0302,3.1324],[73.05,3.2181],[73.0501,3.2186],[73.0496,3.2204],[73.0102,3.281],[73.0097,3.2816],[73.0089,3.2823],[73.0072,3.2823],[72.8107,3.2661],[72.8081,3.2614],[72.808,3.2602]]]}},{"type":"Feature","properties":{"name":"Meemu"},"geometry":{"type":"Polygon","coordinates":[[[73.3622,2.7734],[73.3633,2.7699],[73.365,2.7689],[73.4148,2.7529],[73.4154,2.7528],[73.4164,2.7531],[73.4168,2.7533],[73.5604,2.8496],[73.5605,2.8497],[73.5849,2.8757],[73.613,2.956],[73.6512,3.0785],[73.6494,3.0993],[73.649,3.1002],[73.6486,3.1006],[73.6482,3.1009],[73.6473,3.1016],[73.423,3.2328],[73.4229,3.2326],[73.3665,2.8948],[73.3622,2.7734]]]}},{"type":"Feature","properties":{"name":"Dhaalu"},"geometry":{"type":"Polygon","coordinates":[[[72.8272,2.8899],[72.8412,2.6899],[72.8415,2.689],[72.8422,2.6879],[72.8477,2.6812],[72.8707,2.6561],[72.8746,2.6555],[72.883,2.6545],[72.8857,2.6542],[72.8902,2.6538],[72.9256,2.6627],[72.9705,2.6838],[72.988,2.6946],[73.0219,2.7241],[73.0223,2.7246],[73.0232,2.7258],[73.0257,2.7294],[73.0263,2.7303],[73.029,2.7352],[73.0302,2.7377],[73.0316,2.7414],[73.0345,2.7506],[73.0403,2.7812],[73.0339,2.9342],[73.0213,2.9917],[73.0117,3.0113],[73.0047,3.0164],[73.0041,3.0164],[72.911,2.9599],[72.8584,2.9224],[72.8276,2.8953],[72.8275,2.8947],[72.8272,2.8899]]]}},{"type":"Feature","properties":{"name":"Thaa"},"geometry":{"type":"Polygon","coordinates":[[[72.9022,2.3239],[72.9029,2.3135],[72.9174,2.2661],[72.9586,2.1857],[72.9592,2.1849],[72.9659,2.1791],[72.9668,2.1784],[73.0046,2.1571],[73.0051,2.1569],[73.0144,2.1542],[73.0578,2.153],[73.0619,2.1529],[73.0754,2.1568],[73.0763,2.1572],[73.1487,2.1938],[73.3347,2.3213],[73.3674,2.3523],[73.3749,2.3602],[73.3751,2.3607],[73.3768,2.3645],[73.3761,2.3997],[73.3709,2.4213],[73.3704,2.4232],[73.3697,2.4255],[73.3658,2.4366],[73.3648,2.439],[73.3608,2.447],[73.3192,2.5144],[73.3185,2.5151],[73.3179,2.5156],[73.3168,2.516],[73.1549,2.5607],[73.1087,2.5716],[73.079,2.5742],[73.0772,2.5743],[73.0724,2.5741],[73.0701,2.5739],[72.9786,2.54],[72.9032,2.3271],[72.9022,2.3239]]]}},{"type":"Feature","properties":{"name":"Laamu"},"geometry":{"type":"Polygon","coordinates":[[[73.226,1.8851],[73.2263,1.8843],[73.2446,1.8398],[73.2627,1.8152],[73.2807,1.7957],[73.2817,1.7948],[73.2825,1.7942],[73.2886,1.7896],[73.346,1.7702],[73.3653,1.7686],[73.3721,1.7691],[73.4963,1.8108],[73.4974,1.8112],[73.4994,1.8123],[73.5008,1.8131],[73.503,1.8148],[73.5041,1.8157],[73.5077,1.819],[73.5084,1.8196],[73.5089,1.8202],[73.51,1.8213],[73.532,1.8456],[73.5417,1.8622],[73.5636,1.9263],[73.5638,1.9271],[73.5641,1.9295],[73.5922,2.137],[73.5923,2.1386],[73.5922,2.1405],[73.592,2.1419],[73.5917,2.1427],[73.5911,2.1428],[73.5904,2.1427],[73.5464,2.1272],[73.3499,2.0271],[73.2497,1.9538],[73.2261,1.8855],[73.226,1.8851]]]}},{"type":"Feature","properties":{"name":"Gaafu Alif"},"geometry":{"type":"Polygon","coordinates":[[[73.0807,0.5848],[73.083,0.5349],[73.0831,0.5346],[73.0833,0.5343],[73.5772,0.4059],[73.5776,0.4061],[73.5779,0.4064],[73.5806,0.4108],[73.5813,0.4139],[73.5815,0.4159],[73.5815,0.4167],[73.5795,0.4338],[73.5783,0.4399],[73.5746,0.4525],[73.5647,0.4851],[73.5452,0.5391],[73.5394,0.555],[73.5387,0.5568],[73.4105,0.8589],[73.4102,0.8594],[73.4086,0.8611],[73.3487,0.9084],[73.3484,0.9086],[73.3474,0.909],[73.3473,0.909],[73.1826,0.8762],[73.1818,0.876],[73.1712,0.8666],[73.1711,0.8663],[73.0808,0.586],[73.0807,0.5848]]]}},{"type":"Feature","properties":{"name":"Gaafu Dhaalu"},"geometry":{"type":"Polygon","coordinates":[[[72.9775,0.5031],[72.9781,0.4936],[72.9931,0.3983],[72.9935,0.3962],[73.0142,0.3007],[73.0145,0.2993],[73.0147,0.2988],[73.0163,0.296],[73.0218,0.2895],[73.0219,0.2893],[73.022,0.2892],[73.1361,0.203],[73.1367,0.2025],[73.1982,0.1763],[73.1983,0.1763],[73.2282,0.1837],[73.4372,0.2594],[73.4662,0.2816],[73.5516,0.3467],[73.552,0.3472],[73.5525,0.3479],[73.5657,0.3674],[73.5663,0.3686],[73.5852,0.4144],[73.585,0.4172],[73.5849,0.4177],[73.1429,0.5229],[72.9889,0.55],[72.9883,0.5499],[72.9868,0.5479],[72.9847,0.5447],[72.9836,0.5412],[72.9832,0.5392],[72.9775,0.5031]]]}},{"type":"Feature","properties":{"name":"Addu"},"geometry":{"type":"Polygon","coordinates":[[[73.0654,-0.5829],[73.0654,-0.5861],[73.0656,-0.5867],[73.066,-0.588],[73.0691,-0.5965],[73.074,-0.6093],[73.0773,-0.6178],[73.1023,-0.6656],[73.1203,-0.6908],[73.1261,-0.6973],[73.1348,-0.7036],[73.1561,-0.715],[73.1618,-0.7167],[73.1623,-0.7166],[73.1887,-0.703],[73.1928,-0.7003],[73.1936,-0.6998],[73.1944,-0.6991],[73.2281,-0.6658],[73.2353,-0.6442],[73.2505,-0.5799],[73.2506,-0.579],[73.2507,-0.5769],[73.2507,-0.5766],[73.2505,-0.5758],[73.2499,-0.5753],[73.2494,-0.5748],[73.2233,-0.5708],[73.2175,-0.5701],[73.0788,-0.5717],[73.0771,-0.5723],[73.0763,-0.5726],[73.0748,-0.5732],[73.0672,-0.5777],[73.0664,-0.5782],[73.0662,-0.5784],[73.0661,-0.5785],[73.0659,-0.579],[73.0658,-0.5795],[73.0654,-0.5829]]]}},{"type":"Feature","properties":{"name":"Gnaviyani"},"geometry":{"type":"Polygon","coordinates":[[[73.4114,-0.2892],[73.4123,-0.291],[73.4135,-0.2922],[73.4149,-0.2933],[73.416,-0.2938],[73.4172,-0.2944],[73.4188,-0.2955],[73.4202,-0.2968],[73.422,-0.2987],[73.4236,-0.3012],[73.424,-0.3021],[73.4242,-0.3029],[73.4244,-0.3034],[73.4246,-0.3037],[73.4246,-0.3038],[73.4258,-0.3059],[73.4259,-0.306],[73.4273,-0.3082],[73.4285,-0.3098],[73.4302,-0.3108],[73.4317,-0.3114],[73.4337,-0.312],[73.435,-0.3121],[73.4366,-0.312],[73.4383,-0.3116],[73.4392,-0.3111],[73.4399,-0.3101],[73.4404,-0.3093],[73.4405,-0.3083],[73.4405,-0.3078],[73.4404,-0.3073],[73.4405,-0.307],[73.4406,-0.3069],[73.4408,-0.3069],[73.4409,-0.3069],[73.4409,-0.3068],[73.4409,-0.3067],[73.4407,-0.3067],[73.4403,-0.3066],[73.4402,-0.3066],[73.4398,-0.306],[73.439,-0.3051],[73.4383,-0.3042],[73.4371,-0.3028],[73.4356,-0.3009],[73.4346,-0.2997],[73.4337,-0.2984],[73.4325,-0.2969],[73.4316,-0.2961],[73.4308,-0.2953],[73.4289,-0.2936],[73.4268,-0.2912],[73.4239,-0.2877],[73.4216,-0.2841],[73.4208,-0.2823],[73.4201,-0.2804],[73.42,-0.2798],[73.4199,-0.2791],[73.4198,-0.2785],[73.4193,-0.2779],[73.4187,-0.2775],[73.4177,-0.277],[73.4169,-0.2772],[73.4163,-0.2777],[73.4157,-0.2782],[73.4148,-0.279],[73.414,-0.2798],[73.4132,-0.2805],[73.4123,-0.2811],[73.4114,-0.282],[73.4108,-0.2826],[73.4104,-0.2834],[73.4101,-0.2843],[73.4101,-0.2854],[73.4103,-0.2876],[73.4107,-0.2885],[73.4112,-0.289],[73.4114,-0.2892]]]}}]}